{"type": "FeatureCollection", "features": [ {"type": "Feature", "properties": {"norad_id": 35744, "name": "IRIDIUM 33 DEB", "group": "iridium-33-debris", "lat": -0.3714036094450884, "lon": 146.83062826709326, "alt_km": 648.4434494198331, "timestamp": "2025-12-09T16:56:36.959643+00:00", "meta": {"OBJECT_NAME": "IRIDIUM 33 DEB", "OBJECT_ID": "1997-051RX", "EPOCH": "2025-12-09T06:19:46.714368", "MEAN_MOTION": 14.70917614, "ECCENTRICITY": 0.0019844, "INCLINATION": 86.3295, "RA_OF_ASC_NODE": 327.0065, "ARG_OF_PERICENTER": 205.1903, "MEAN_ANOMALY": 154.8347, "EPHEMERIS_TYPE": 0, "CLASSIFICATION_TYPE": "U", "NORAD_CAT_ID": 35744, "ELEMENT_SET_NO": 999, "REV_AT_EPOCH": 87280, "BSTAR": 0.0015728, "MEAN_MOTION_DOT": 9.685e-05, "MEAN_MOTION_DDOT": 0}, "tle": {"line1": "1 35744U 97051RX  25343.26373512  .00009685  00000+0  15728-2 0  9993", "line2": "2 35744  86.3295 327.0065 0019844 205.1903 154.8347 14.70917614872804"}}, "geometry": {"type": "Point", "coordinates": [146.83062826709326, -0.3714036094450884]}}, {"type": "Feature", "properties": {"norad_id": 35797, "name": "IRIDIUM 33 DEB", "group": "iridium-33-debris", "lat": 39.42951264645151, "lon": 148.34632057994048, "alt_km": 609.6481200741264, "timestamp": "2025-12-09T16:56:36.959653+00:00", "meta": {"OBJECT_NAME": "IRIDIUM 33 DEB", "OBJECT_ID": "1997-051SF", "EPOCH": "2025-12-07T17:20:13.337376", "MEAN_MOTION": 14.82554733, "ECCENTRICITY": 0.00125987, "INCLINATION": 86.336, "RA_OF_ASC_NODE": 332.2775, "ARG_OF_PERICENTER": 164.89, "MEAN_ANOMALY": 195.2701, "EPHEMERIS_TYPE": 0, "CLASSIFICATION_TYPE": "U", "NORAD_CAT_ID": 35797, "ELEMENT_SET_NO": 999, "REV_AT_EPOCH": 87266, "BSTAR": 0.0031386009, "MEAN_MOTION_DOT": 0.0002535, "MEAN_MOTION_DDOT": 0}, "tle": {"line1": "1 35797U 97051SF  25341.72237659  .00025350  00000+0  31386-2 0  9996", "line2": "2 35797  86.3360 332.2775 0012598 164.8900 195.2701 14.82554733872667"}}, "geometry": {"type": "Point", "coordinates": [148.34632057994048, 39.42951264645151]}}, {"type": "Feature", "properties": {"norad_id": 35806, "name": "IRIDIUM 33 DEB", "group": "iridium-33-debris", "lat": 2.727711122848659, "lon": 22.13983257198862, "alt_km": 702.6562116767664, "timestamp": "2025-12-09T16:56:36.959664+00:00", "meta": {"OBJECT_NAME": "IRIDIUM 33 DEB", "OBJECT_ID": "1997-051SQ", "EPOCH": "2025-12-06T09:49:43.789440", "MEAN_MOTION": 14.5725267, "ECCENTRICITY": 0.0016158, "INCLINATION": 86.344, "RA_OF_ASC_NODE": 23.4162, "ARG_OF_PERICENTER": 94.3917, "MEAN_ANOMALY": 265.9138, "EPHEMERIS_TYPE": 0, "CLASSIFICATION_TYPE": "U", "NORAD_CAT_ID": 35806, "ELEMENT_SET_NO": 999, "REV_AT_EPOCH": 86232, "BSTAR": 0.0020153904, "MEAN_MOTION_DOT": 9.149e-05, "MEAN_MOTION_DDOT": 0}, "tle": {"line1": "1 35806U 97051SQ  25340.40953460  .00009149  00000+0  20154-2 0  9995", "line2": "2 35806  86.3440  23.4162 0016158  94.3917 265.9138 14.57252670862325"}}, "geometry": {"type": "Point", "coordinates": [22.13983257198862, 2.727711122848659]}}, {"type": "Feature", "properties": {"norad_id": 35809, "name": "IRIDIUM 33 DEB", "group": "iridium-33-debris", "lat": 12.238141010582652, "lon": 155.93181564077662, "alt_km": 644.6908790381867, "timestamp": "2025-12-09T16:56:36.959674+00:00", "meta": {"OBJECT_NAME": "IRIDIUM 33 DEB", "OBJECT_ID": "1997-051ST", "EPOCH": "2025-12-06T06:48:24.450912", "MEAN_MOTION": 14.75488502, "ECCENTRICITY": 0.00096585, "INCLINATION": 86.3276, "RA_OF_ASC_NODE": 338.2877, "ARG_OF_PERICENTER": 270.8385, "MEAN_ANOMALY": 89.1727, "EPHEMERIS_TYPE": 0, "CLASSIFICATION_TYPE": "U", "NORAD_CAT_ID": 35809, "ELEMENT_SET_NO": 999, "REV_AT_EPOCH": 86712, "BSTAR": 0.0029776157, "MEAN_MOTION_DOT": 0.00020329, "MEAN_MOTION_DDOT": 0}, "tle": {"line1": "1 35809U 97051ST  25340.28361633  .00020329  00000+0  29776-2 0  9991", "line2": "2 35809  86.3276 338.2877 0009658 270.8385  89.1727 14.75488502867120"}}, "geometry": {"type": "Point", "coordinates": [155.93181564077662, 12.238141010582652]}}, {"type": "Feature", "properties": {"norad_id": 35846, "name": "IRIDIUM 33 DEB", "group": "iridium-33-debris", "lat": -56.52196396919238, "lon": 54.635874795006046, "alt_km": 762.513120304453, "timestamp": "2025-12-09T16:56:36.959684+00:00", "meta": {"OBJECT_NAME": "IRIDIUM 33 DEB", "OBJECT_ID": "1997-051SW", "EPOCH": "2025-12-08T22:54:05.598144", "MEAN_MOTION": 14.43136324, "ECCENTRICITY": 0.0018559, "INCLINATION": 86.3751, "RA_OF_ASC_NODE": 60.4571, "ARG_OF_PERICENTER": 182.7319, "MEAN_ANOMALY": 177.3783, "EPHEMERIS_TYPE": 0, "CLASSIFICATION_TYPE": "U", "NORAD_CAT_ID": 35846, "ELEMENT_SET_NO": 999, "REV_AT_EPOCH": 71274, "BSTAR": 0.00082509, "MEAN_MOTION_DOT": 2.794e-05, "MEAN_MOTION_DDOT": 0}, "tle": {"line1": "1 35846U 97051SW  25342.95423146  .00002794  00000+0  82509-3 0  9996", "line2": "2 35846  86.3751  60.4571 0018559 182.7319 177.3783 14.43136324712748"}}, "geometry": {"type": "Point", "coordinates": [54.635874795006046, -56.52196396919238]}}, {"type": "Feature", "properties": {"norad_id": 35848, "name": "IRIDIUM 33 DEB", "group": "iridium-33-debris", "lat": 85.97336907812691, "lon": 81.14882858039604, "alt_km": 629.0081594033545, "timestamp": "2025-12-09T16:56:36.959695+00:00", "meta": {"OBJECT_NAME": "IRIDIUM 33 DEB", "OBJECT_ID": "1997-051SY", "EPOCH": "2025-12-06T20:19:25.547808", "MEAN_MOTION": 14.78448907, "ECCENTRICITY": 0.00071808, "INCLINATION": 86.3929, "RA_OF_ASC_NODE": 18.7802, "ARG_OF_PERICENTER": 219.4527, "MEAN_ANOMALY": 140.6171, "EPHEMERIS_TYPE": 0, "CLASSIFICATION_TYPE": "U", "NORAD_CAT_ID": 35848, "ELEMENT_SET_NO": 999, "REV_AT_EPOCH": 66603, "BSTAR": 0.0027695976, "MEAN_MOTION_DOT": 0.0002026, "MEAN_MOTION_DDOT": 0}, "tle": {"line1": "1 35848U 97051SY  25340.84682347  .00020260  00000+0  27696-2 0  9997", "line2": "2 35848  86.3929  18.7802 0007180 219.4527 140.6171 14.78448907666032"}}, "geometry": {"type": "Point", "coordinates": [81.14882858039604, 85.97336907812691]}}, {"type": "Feature", "properties": {"norad_id": 35850, "name": "IRIDIUM 33 DEB", "group": "iridium-33-debris", "lat": 51.21271867541659, "lon": -9.816454229459131, "alt_km": 633.6166713334487, "timestamp": "2025-12-09T16:56:36.959705+00:00", "meta": {"OBJECT_NAME": "IRIDIUM 33 DEB", "OBJECT_ID": "1997-051TA", "EPOCH": "2025-12-06T07:30:15.621984", "MEAN_MOTION": 14.78601393, "ECCENTRICITY": 0.00083892, "INCLINATION": 86.3487, "RA_OF_ASC_NODE": 347.1693, "ARG_OF_PERICENTER": 210.267, "MEAN_ANOMALY": 149.8067, "EPHEMERIS_TYPE": 0, "CLASSIFICATION_TYPE": "U", "NORAD_CAT_ID": 35850, "ELEMENT_SET_NO": 999, "REV_AT_EPOCH": 71262, "BSTAR": 0.0028291764, "MEAN_MOTION_DOT": 0.00020775, "MEAN_MOTION_DDOT": 0}, "tle": {"line1": "1 35850U 97051TA  25340.31268081  .00020775  00000+0  28292-2 0  9991", "line2": "2 35850  86.3487 347.1693 0008389 210.2670 149.8067 14.78601393712623"}}, "geometry": {"type": "Point", "coordinates": [-9.816454229459131, 51.21271867541659]}}, {"type": "Feature", "properties": {"norad_id": 35915, "name": "IRIDIUM 33 DEB", "group": "iridium-33-debris", "lat": -29.557894695213445, "lon": -17.734833020899238, "alt_km": 638.0833949120897, "timestamp": "2025-12-09T16:56:36.959715+00:00", "meta": {"OBJECT_NAME": "IRIDIUM 33 DEB", "OBJECT_ID": "1997-051TY", "EPOCH": "2025-12-07T18:02:16.498176", "MEAN_MOTION": 14.80542095, "ECCENTRICITY": 0.00101746, "INCLINATION": 86.3429, "RA_OF_ASC_NODE": 345.2367, "ARG_OF_PERICENTER": 205.9072, "MEAN_ANOMALY": 154.1641, "EPHEMERIS_TYPE": 0, "CLASSIFICATION_TYPE": "U", "NORAD_CAT_ID": 35915, "ELEMENT_SET_NO": 999, "REV_AT_EPOCH": 8012, "BSTAR": 0.0030076362, "MEAN_MOTION_DOT": 0.00023136, "MEAN_MOTION_DDOT": 0}, "tle": {"line1": "1 35915U 97051TY  25341.75157984  .00023136  00000+0  30076-2 0  9998", "line2": "2 35915  86.3429 345.2367 0010174 205.9072 154.1641 14.80542095 80126"}}, "geometry": {"type": "Point", "coordinates": [-17.734833020899238, -29.557894695213445]}}, {"type": "Feature", "properties": {"norad_id": 35918, "name": "IRIDIUM 33 DEB", "group": "iridium-33-debris", "lat": 84.63478382381946, "lon": 119.20611225321035, "alt_km": 715.3276738775776, "timestamp": "2025-12-09T16:56:36.959726+00:00", "meta": {"OBJECT_NAME": "IRIDIUM 33 DEB", "OBJECT_ID": "1997-051UB", "EPOCH": "2025-12-07T13:31:29.153568", "MEAN_MOTION": 14.51171215, "ECCENTRICITY": 0.00271834, "INCLINATION": 86.4003, "RA_OF_ASC_NODE": 78.036, "ARG_OF_PERICENTER": 186.5072, "MEAN_ANOMALY": 234.2522, "EPHEMERIS_TYPE": 0, "CLASSIFICATION_TYPE": "U", "NORAD_CAT_ID": 35918, "ELEMENT_SET_NO": 999, "REV_AT_EPOCH": 85132, "BSTAR": 0.0020664418, "MEAN_MOTION_DOT": 8.262e-05, "MEAN_MOTION_DDOT": 0}, "tle": {"line1": "1 35918U 97051UB  25341.56353187  .00008262  00000+0  20664-2 0  9998", "line2": "2 35918  86.4003  78.0360 0027183 186.5072 234.2522 14.51171215851320"}}, "geometry": {"type": "Point", "coordinates": [119.20611225321035, 84.63478382381946]}}, {"type": "Feature", "properties": {"norad_id": 35929, "name": "IRIDIUM 33 DEB", "group": "iridium-33-debris", "lat": -1.738446819007424, "lon": -46.043400565691044, "alt_km": 554.2663923610844, "timestamp": "2025-12-09T16:56:36.959736+00:00", "meta": {"OBJECT_NAME": "IRIDIUM 33 DEB", "OBJECT_ID": "1997-051UN", "EPOCH": "2025-12-02T05:49:26.403744", "MEAN_MOTION": 15.01304383, "ECCENTRICITY": 0.00192929, "INCLINATION": 86.3326, "RA_OF_ASC_NODE": 317.6017, "ARG_OF_PERICENTER": 66.6937, "MEAN_ANOMALY": 293.6323, "EPHEMERIS_TYPE": 0, "CLASSIFICATION_TYPE": "U", "NORAD_CAT_ID": 35929, "ELEMENT_SET_NO": 999, "REV_AT_EPOCH": 87622, "BSTAR": 0.0031995692, "MEAN_MOTION_DOT": 0.00041528, "MEAN_MOTION_DDOT": 0}, "tle": {"line1": "1 35929U 97051UN  25336.24266671  .00041528  00000+0  31996-2 0  9992", "line2": "2 35929  86.3326 317.6017 0019292  66.6937 293.6323 15.01304383876224"}}, "geometry": {"type": "Point", "coordinates": [-46.043400565691044, -1.738446819007424]}}]}